P/2015 M2 (PANSTARRS),e,3.9703,86.5854,225.8971,7.240126,0.0505924,0.18021446,126.6112,07/21.0/2022,2000,g  8.5,4.0
# From MPEC 2021-P47
C/2015 O1 (PANSTARRS),h,02/20.1618/2018,127.1938,299.8378,89.5679,1.001513,3.723150,2000,6.5,4.0
# From MPC 99819
P/2015 P4 (PANSTARRS),e,8.7174,104.7044,280.6311,6.046988,0.0662820,0.58559159,157.1723,07/21.0/2022,2000,g 14.0,4.0
# From MPEC 2022-K19
P/2015 PD229 (Cameron-ISON),e,2.0256,342.6478,352.6439,7.190267,0.0511195,0.32785877,129.2891,07/21.0/2022,2000,g 11.5,2.0
# From MPC 96867
P/2015 Q2 (Pimentel),e,146.5396,228.5102,244.6176,7.352925,0.0494326,0.75055042,124.0465,07/21.0/2022,2000,g 15.5,4.0
# From MPC 98562
P/2015 R1 (PANSTARRS),e,22.6940,48.3443,300.5499,5.880228,0.0691214,0.63438654,178.1582,07/21.0/2022,2000,g 14.0,4.0
# From MPC 95734
P/2015 R2 (PANSTARRS),e,15.4856,168.5972,149.8386,4.486095,0.1037293,0.45286714,268.8966,07/21.0/2022,2000,g 14.5,4.0
# From MPEC 2022-N37
C/2015 R3 (PANSTARRS),h,02/12.6404/2014,83.4270,36.3067,272.0430,1.000373,4.901728,2000,10.0,4.0
# From MPC 96280
P/2015 T3 (PANSTARRS),e,13.0937,120.5019,178.6330,4.326181,0.1095335,0.50818108,359.9227,12/21.0/2014,2000,g 14.0,4.0
# From MPC102953
P/2015 TO19 (Lemmon-PANSTARRS),e,6.5001,321.6372,89.1474,4.552945,0.1014531,0.35910621,236.0931,07/21.0/2022,2000,g 14.0,4.0
# From MPC110080
P/2015 TP200 (LINEAR),e,8.7807,7.0202,82.4596,7.266431,0.0503179,0.53586507,105.2625,07/21.0/2022,2000,g 11.0,4.0
# From MPEC 2022-N37
C/2015 TQ209 (LINEAR),e,11.3148,223.5029,281.9185,475.0106,0.0000952,0.99702908,0.0000,08/24.6190/2016,2000,g 10.5,4.0
# From MPC115881
C/2015 V1 (PANSTARRS),e,139.2299,197.1437,179.6727,2179,0.0000097,0.99803679,0.0000,12/16.4222/2017,2000,g  6.5,4.0
# From MPC112390
C/2015 V2 (Johnson),h,06/10.8858/2017,49.7945,70.0157,164.9650,1.001667,1.648476,2000,5.0,4.0
# From MPC115881
C/2015 VL62 (Lemmon-Yeung-PANSTARRS),h,08/28.1561/2017,165.8237,95.1994,129.0002,1.001840,2.724820,2000,8.0,4.0
# From MPC101098
P/2015 W2 (Catalina),e,11.6087,294.1813,117.5192,7.291246,0.0500612,0.63500446,124.2877,07/21.0/2022,2000,g 13.0,4.0
# From MPEC 2021-N06
P/2015 X1 (PANSTARRS),e,12.1521,161.7586,218.7499,3.637573,0.1420648,0.41938108,353.2257,07/21.0/2022,2000,g 16.0,4.0
# From MPEC 2022-O08
C/2015 XY1 (Lemmon),h,04/25.8877/2018,148.8516,281.5867,196.1463,1.000275,7.923502,2000,5.5,4.0
# From MPC 97498
P/2015 X3 (PANSTARRS),e,24.4045,77.2721,306.7389,5.005448,0.0880115,0.43988722,223.1471,07/21.0/2022,2000,g 15.0,4.0
# From MPC119995
C/2015 X5 (PANSTARRS),e,124.3145,122.3201,27.5576,21753,0.0000003,0.99968767,0.0000,12/27.5296/2017,2000,g  7.5,4.0
# From MPC115881
P/2015 X6 (PANSTARRS),e,4.5646,106.9370,329.7892,2.752792,0.2157963,0.17296808,138.5332,07/21.0/2022,2000,g 16.0,4.0
# From MPEC 2022-O08
C/2016 A1 (PANSTARRS),e,121.2109,128.1828,10.1128,13291,0.0000006,0.99959997,0.0000,11/21.0892/2017,2000,g  6.0,4.0
# From MPC100282
P/2016 A2 (Christensen),e,26.4031,291.6177,141.3017,4.753470,0.0951016,0.27072747,246.7740,07/21.0/2022,2000,g 11.5,4.0
# From MPEC 2022-O08
P/2016 A3 (PANSTARRS),e,8.5104,187.2321,340.9581,7.882645,0.0445345,0.38608374,85.1249,07/21.0/2022,2000,g 10.0,4.0
# From MPEC 2022-N37
C/2016 A5 (PANSTARRS),e,40.2464,136.1618,321.3313,564.8763,0.0000734,0.99482235,0.0000,06/27.9201/2015,2000,g 13.5,4.0
# From MPC102098
P/2016 A7 (PANSTARRS),e,16.6034,221.4972,352.5582,5.034593,0.0872484,0.56440639,204.3656,07/21.0/2022,2000,g 16.0,4.0
# From MPC109143
P/2016 BA14 (PANSTARRS),e,18.8960,180.5155,351.9439,3.026055,0.1872358,0.66488716,74.6606,07/21.0/2022,2000,g 21.0,4.0
# From MPC110494
C/2016 E1 (PANSTARRS),h,06/03.6085/2017,131.8651,233.1355,47.4423,1.006023,8.172190,2000,6.5,4.0
# From MPEC 2022-L66
C/2016 E2 (Kowalski),h,02/08.3885/2016,135.9015,187.0783,322.1889,1.000383,1.067196,2000,20.0,4.0
# From MPEC 2017-D91
P/2016 J1-A (PANSTARRS),e,14.3288,199.8122,47.0058,3.171898,0.1744718,0.22767117,26.2117,07/21.0/2022,2000,g 16.5,4.0
# From MPEC 2017-A77
P/2016 J1-B (PANSTARRS),e,14.3316,199.8171,46.8969,3.171530,0.1745022,0.22752207,26.3542,07/21.0/2022,2000,g 17.0,4.0
# From MPEC 2022-N37
C/2016 KA (Catalina),h,02/04.3833/2016,104.6730,317.5066,63.2351,1.000594,5.405726,2000,8.5,4.0
# From MPEC 2022-ED3
C/2016 M1 (PANSTARRS),e,90.9093,92.2475,209.9374,828670,0.0000000,0.99999733,0.0000,08/10.5659/2018,2000,g  5.0,4.0
# From MPEC 2022-K19
C/2016 N4 (MASTER),e,72.6541,353.9901,55.9577,6380,0.0000019,0.99949901,0.0000,09/17.5842/2017,2000,g  8.5,4.0
# From MPEC 2021-P47
C/2016 N6 (PANSTARRS),e,105.8507,298.9453,162.6115,1039,0.0000294,0.99743906,0.0000,07/17.6455/2018,2000,g  7.0,4.0
# From MPC102099
P/2016 P1 (PANSTARRS),e,24.4451,319.5651,270.2895,3.196762,0.1724403,0.28936522,69.8641,07/21.0/2022,2000,g 15.0,4.0
# From MPEC 2022-O08
P/2016 PM1 (WISE-PANSTARRS),e,22.1250,89.4050,170.8968,3.427716,0.1553090,0.57022572,1.6487,07/21.0/2022,2000,g 17.0,4.0
# From MPEC 2022-M21
C/2016 P4 (PANSTARRS),e,29.9021,320.7331,356.2372,424.2610,0.0001128,0.98606205,0.0000,10/17.8493/2016,2000,g 10.5,4.0
# From MPEC 2022-M21
C/2016 Q2 (PANSTARRS),h,05/12.2551/2021,109.3864,322.3021,84.5511,1.002390,7.081988,2000,6.0,4.0
# From MPC102955
C/2016 Q4 (Kowalski),e,7.2492,271.2968,99.6070,17.00308,0.0140576,0.58283590,22.9466,07/21.0/2022,2000,g  7.0,4.0
# From MPEC 2021-N06
C/2016 R2 (PANSTARRS),e,58.2990,80.5263,33.1027,475.8308,0.0000950,0.99454023,0.0000,05/09.0452/2018,2000,g  7.0,4.0
# From MPEC 2022-K19
P/2016 R4 (Gibbs),e,10.8781,168.2613,174.1081,5.332127,0.0800485,0.47636329,175.1576,07/21.0/2022,2000,g 12.5,4.0
# From MPC105543
P/2016 S1 (PANSTARRS),e,94.7199,227.6283,273.2688,8.277022,0.0413898,0.71014500,80.8230,07/21.0/2022,2000,g 12.0,4.0
# From MPC110082
C/2016 T3 (PANSTARRS),e,22.7105,271.6683,194.5761,129.0461,0.0006723,0.97954975,0.0000,09/06.8001/2017,2000,g 10.5,4.0
# From MPC106345
P/2016 WM48 (Lemmon),e,117.5510,59.9245,36.1243,8.167508,0.0422250,0.78351035,83.3431,07/21.0/2022,2000,g 15.0,4.0
# From MPEC 2021-P47
C/2016 X1 (Lemmon),e,26.4559,256.3596,224.4728,1286,0.0000214,0.99412263,0.0000,04/27.7889/2019,2000,g  6.0,4.0
# From MPC114598
C/2017 AB5 (PANSTARRS),e,32.4606,42.6028,78.2853,2407,0.0000083,0.99617605,0.0000,02/14.4052/2018,2000,g  5.5,4.0
# From MPEC 2022-A21
C/2017 B3 (LINEAR),h,02/01.8648/2019,54.1583,2.1747,284.8255,1.000637,3.927634,2000,6.0,4.0
# From MPC103847
P/2017 B4 (PANSTARRS),e,20.0584,121.4578,11.0197,4.410520,0.1064068,0.36495152,359.9130,01/05.0/2017,2000,g 14.5,4.0
# From MPC104793
P/2017 D1 (Fuls),e,20.7633,82.1848,7.9589,4.828413,0.0928961,0.43667338,206.1579,07/21.0/2022,2000,g 14.0,4.0
# From MPC112391
C/2017 D2 (Barros),e,31.2566,330.9591,334.6536,16559,0.0000005,0.99984902,0.0000,07/14.5021/2017,2000,g 11.0,4.0
# From MPEC 2022-K19
P/2017 D4 (PANSTARRS),e,10.5434,264.9398,212.1670,7.550988,0.0475005,0.62864567,101.8985,07/21.0/2022,2000,g 13.0,4.0
# From MPEC 2022-O08
C/2017 E3 (PANSTARRS),h,06/07.1035/2017,70.6652,220.8059,334.4363,1.005696,5.934575,2000,6.5,4.0
# From MPEC 2022-M21
C/2017 E5 (Lemmon),e,122.6706,206.5005,306.9300,391.6808,0.0001271,0.99545163,0.0000,06/11.8691/2016,2000,g 13.0,4.0
# From MPC111769
C/2017 F1 (Lemmon),h,11/28.3761/2017,146.4630,158.7878,64.7189,1.001677,4.498668,2000,10.5,4.0
# From MPC114598
C/2017 F2 (PANSTARRS),h,11/25.8027/2017,42.5541,38.7027,134.9138,1.001964,6.925716,2000,7.5,4.0
# From MPC104794
P/2017 G1 (PANSTARRS),e,4.7813,249.6600,224.3944,7.277741,0.0502006,0.65339488,114.2607,07/21.0/2022,2000,g 13.5,4.0
# From MPC108595
P/2017 G2 (PANSTARRS),e,47.9562,79.8215,105.4537,8.054504,0.0431167,0.64754250,80.5181,07/21.0/2022,2000,g 13.0,4.0
# From MPC115882
C/2017 K1 (PANSTARRS),h,03/17.9667/2018,154.0214,225.7222,4.4309,1.003452,7.285371,2000,7.0,4.0
# From MPEC 2022-M21
C/2017 K2 (PANSTARRS),h,12/19.6830/2022,87.5616,88.2353,236.1971,1.000792,1.796929,2000,1.5,4.0
# From MPEC 2021-N06
P/2017 K3 (Gasparovic),e,4.2731,354.2893,253.4410,5.584540,0.0746832,0.57937628,140.3268,07/21.0/2022,2000,g 14.5,4.0
# From MPC114598
C/2017 K4 (ATLAS),e,16.6670,298.9051,15.3371,28.68758,0.0064145,0.90728839,10.6139,07/21.0/2022,2000,g 10.0,4.0
# From MPEC 2021-P47
C/2017 K5 (PANSTARRS),h,03/27.3745/2020,82.2445,102.3795,172.0649,1.005376,7.683636,2000,5.0,4.0
# From MPC114599
C/2017 K6 (Jacques),e,57.2240,84.9205,303.7942,1204,0.0000236,0.99834332,0.0000,01/03.9799/2018,2000,g 11.0,4.0
# From MPEC 2021-Y10
C/2017 M4 (ATLAS),h,01/17.9707/2019,105.6436,65.9456,167.6171,1.001379,3.253036,2000,6.0,4.0
# From MPC118841
C/2017 M5 (TOTAS),h,06/04.4075/2018,15.8644,216.2891,92.8520,1.005302,6.002866,2000,6.5,4.0
# From MPC114599
C/2017 O1 (ASASSN),e,39.9829,25.7171,20.8402,375.2973,0.0001356,0.99602755,0.0000,10/15.8147/2017,2000,g 11.0,4.0
# From MPC114599
P/2017 P1 (PANSTARRS),e,7.6904,221.3724,122.6329,7.910022,0.0443035,0.31099279,66.0000,07/21.0/2022,2000,g 10.0,4.0
# From MPC114599
C/2017 P2 (PANSTARRS),e,50.0482,165.4559,132.5037,2565,0.0000076,0.99903519,0.0000,12/06.0379/2017,2000,g 10.0,4.0
# From MPC108595
C/2017 S2 (PANSTARRS),e,12.6692,62.3250,306.1216,20.64717,0.0105054,0.82493711,18.7547,07/21.0/2022,2000,g 13.0,4.0
# From MPC114599
C/2017 S3 (PANSTARRS),h,08/16.5221/2018,99.2115,171.3192,255.8381,1.000089,0.205813,2000,12.9,4.0
# From MPC109591
C/2017 S6 (Catalina),h,02/26.1336/2018,152.8657,131.0948,134.9800,1.000888,1.550750,2000,12.5,4.0
# From MPC114599
C/2017 S7 (Lemmon),e,124.2242,262.7250,187.5083,5459,0.0000024,0.99860641,0.0000,05/23.5893/2017,2000,g  7.0,4.0
# From MPC114599
P/2017 S8 (PANSTARRS),e,29.8587,191.5263,254.8221,2.779122,0.2127368,0.39092130,347.8019,07/21.0/2022,2000,g 16.0,4.0
# From MPC107050
P/2017 S9 (PANSTARRS),e,14.1431,146.2245,237.6196,3.155351,0.1758460,0.30559165,321.0740,07/21.0/2022,2000,g 17.0,4.0
# From MPC114600
C/2017 T1 (Heinze),e,96.8976,102.5080,97.0227,10851,0.0000009,0.99994602,0.0000,02/20.6656/2018,2000,g 14.5,4.0
# From MPEC 2021-Y10
C/2017 T2 (PANSTARRS),e,57.2482,64.3958,92.9572,1727,0.0000137,0.99906511,0.0000,05/04.7942/2020,2000,g  5.0,4.0
